[Satellite]
VERSION=1.1
NAME=TIANWANG 1C (TW-1C)
NICKNAME=TIANWANG 1C (TW-1C)
TLE1=1 40926U 15051B   17186.15459124  .00006578  00000-0  15122-3 0  9997
TLE2=2 40926  97.2289 225.5780 0013750 102.2506 295.2269 15.42907874 99696
